{
"type": "FeatureCollection",
"name": "boundary",
"xy_coordinate_resolution": 1e-05,
"features": [
{ "type": "Feature", "properties": { }, "geometry": { "type": "Polygon", "coordinates": [ [ [ -0.21603, 51.52793 ], [ -0.21582, 51.52783 ], [ -0.21592, 51.5275 ], [ -0.21557, 51.52672 ], [ -0.21332, 51.5269 ], [ -0.2127, 51.52687 ], [ -0.21028, 51.52668 ], [ -0.20824, 51.52632 ], [ -0.20698, 51.52619 ], [ -0.20651, 51.52607 ], [ -0.20618, 51.52594 ], [ -0.20569, 51.52553 ], [ -0.20437, 51.52384 ], [ -0.20388, 51.52346 ], [ -0.20302, 51.52313 ], [ -0.20164, 51.52274 ], [ -0.20153, 51.52198 ], [ -0.20064, 51.5208 ], [ -0.20064, 51.52071 ], [ -0.20077, 51.52071 ], [ -0.20077, 51.52082 ], [ -0.20267, 51.5209 ], [ -0.20311, 51.52082 ], [ -0.20377, 51.52062 ], [ -0.20342, 51.52026 ], [ -0.20321, 51.51976 ], [ -0.20149, 51.5178 ], [ -0.20074, 51.51797 ], [ -0.19989, 51.51677 ], [ -0.19921, 51.51455 ], [ -0.19507, 51.51503 ], [ -0.19406, 51.51176 ], [ -0.19366, 51.51169 ], [ -0.19298, 51.51181 ], [ -0.19214, 51.50987 ], [ -0.19094, 51.51002 ], [ -0.18793, 51.51018 ], [ -0.18426, 51.50179 ], [ -0.18308, 51.50157 ], [ -0.18206, 51.50145 ], [ -0.18093, 51.50142 ], [ -0.18034, 51.50146 ], [ -0.17957, 51.49778 ], [ -0.17357, 51.49822 ], [ -0.17355, 51.4983 ], [ -0.17248, 51.49839 ], [ -0.17247, 51.49847 ], [ -0.17181, 51.49853 ], [ -0.1718, 51.49861 ], [ -0.1715, 51.49869 ], [ -0.16841, 51.49902 ], [ -0.1682, 51.499 ], [ -0.16805, 51.49888 ], [ -0.16793, 51.49852 ], [ -0.16764, 51.4983 ], [ -0.16581, 51.49924 ], [ -0.16551, 51.4987 ], [ -0.1626, 51.50029 ], [ -0.16157, 51.50123 ], [ -0.16102, 51.50159 ], [ -0.16059, 51.50177 ], [ -0.15848, 51.50225 ], [ -0.15852, 51.50126 ], [ -0.15787, 51.49902 ], [ -0.1561, 51.49776 ], [ -0.15568, 51.49563 ], [ -0.15555, 51.49534 ], [ -0.15532, 51.49507 ], [ -0.15584, 51.49473 ], [ -0.15601, 51.49449 ], [ -0.15502, 51.49386 ], [ -0.15601, 51.49322 ], [ -0.15482, 51.49196 ], [ -0.15582, 51.49145 ], [ -0.15557, 51.49067 ], [ -0.1552, 51.49005 ], [ -0.15587, 51.48961 ], [ -0.15349, 51.48818 ], [ -0.1502, 51.48609 ], [ -0.15009, 51.4859 ], [ -0.14984, 51.48456 ], [ -0.14726, 51.48465 ], [ -0.14517, 51.48458 ], [ -0.14428, 51.48443 ], [ -0.14345, 51.48438 ], [ -0.14036, 51.48386 ], [ -0.13894, 51.48382 ], [ -0.13779, 51.48385 ], [ -0.13714, 51.48392 ], [ -0.13288, 51.4847 ], [ -0.13037, 51.48561 ], [ -0.12978, 51.48577 ], [ -0.12931, 51.48599 ], [ -0.12724, 51.48758 ], [ -0.12676, 51.488 ], [ -0.12503, 51.4899 ], [ -0.12456, 51.49044 ], [ -0.12403, 51.49121 ], [ -0.12395, 51.4914 ], [ -0.12394, 51.49193 ], [ -0.12388, 51.4921 ], [ -0.12346, 51.4927 ], [ -0.12301, 51.49369 ], [ -0.12243, 51.49621 ], [ -0.12226, 51.49824 ], [ -0.12143, 51.50319 ], [ -0.12111, 51.50484 ], [ -0.1208, 51.50567 ], [ -0.11966, 51.50704 ], [ -0.11834, 51.5081 ], [ -0.11781, 51.5084 ], [ -0.11632, 51.50895 ], [ -0.1153, 51.50924 ], [ -0.11458, 51.50939 ], [ -0.11272, 51.50966 ], [ -0.11146, 51.50977 ], [ -0.11159, 51.51091 ], [ -0.11153, 51.51164 ], [ -0.11171, 51.51195 ], [ -0.11177, 51.512 ], [ -0.11189, 51.51197 ], [ -0.11216, 51.51227 ], [ -0.11218, 51.51231 ], [ -0.11206, 51.51233 ], [ -0.11241, 51.51277 ], [ -0.11237, 51.51283 ], [ -0.11221, 51.51289 ], [ -0.11233, 51.51304 ], [ -0.11174, 51.5132 ], [ -0.11198, 51.51368 ], [ -0.1111, 51.51383 ], [ -0.11158, 51.51528 ], [ -0.11161, 51.51534 ], [ -0.11169, 51.51533 ], [ -0.11171, 51.5153 ], [ -0.11233, 51.51522 ], [ -0.11231, 51.51515 ], [ -0.11386, 51.51482 ], [ -0.11472, 51.51604 ], [ -0.11728, 51.51538 ], [ -0.11762, 51.51523 ], [ -0.11862, 51.51496 ], [ -0.1187, 51.51472 ], [ -0.11949, 51.51451 ], [ -0.12035, 51.5146 ], [ -0.12184, 51.51487 ], [ -0.1221, 51.51463 ], [ -0.12289, 51.51514 ], [ -0.12338, 51.51479 ], [ -0.12358, 51.51472 ], [ -0.12449, 51.51415 ], [ -0.12667, 51.51314 ], [ -0.12704, 51.51288 ], [ -0.12718, 51.51271 ], [ -0.12735, 51.51267 ], [ -0.1276, 51.51265 ], [ -0.12887, 51.51339 ], [ -0.12936, 51.51348 ], [ -0.12985, 51.51448 ], [ -0.13044, 51.51594 ], [ -0.13047, 51.51618 ], [ -0.13037, 51.5165 ], [ -0.13083, 51.5171 ], [ -0.13247, 51.51672 ], [ -0.13257, 51.51716 ], [ -0.13362, 51.51773 ], [ -0.13394, 51.51755 ], [ -0.13407, 51.51756 ], [ -0.13447, 51.51795 ], [ -0.13434, 51.51802 ], [ -0.13526, 51.51893 ], [ -0.13585, 51.5187 ], [ -0.13632, 51.51915 ], [ -0.13704, 51.51889 ], [ -0.13804, 51.51981 ], [ -0.13821, 51.52004 ], [ -0.1429, 51.52388 ], [ -0.14352, 51.52391 ], [ -0.14341, 51.52454 ], [ -0.1435, 51.52462 ], [ -0.14399, 51.52469 ], [ -0.14418, 51.52464 ], [ -0.14416, 51.524 ], [ -0.14471, 51.52406 ], [ -0.1452, 51.524 ], [ -0.14582, 51.52527 ], [ -0.1472, 51.52504 ], [ -0.15273, 51.53752 ], [ -0.15418, 51.53742 ], [ -0.15499, 51.53731 ], [ -0.15944, 51.53636 ], [ -0.16049, 51.53728 ], [ -0.16339, 51.5364 ], [ -0.16496, 51.53578 ], [ -0.16804, 51.53789 ], [ -0.16904, 51.53841 ], [ -0.16954, 51.5386 ], [ -0.17089, 51.53779 ], [ -0.17198, 51.53838 ], [ -0.17351, 51.53763 ], [ -0.17404, 51.53804 ], [ -0.17414, 51.5382 ], [ -0.17392, 51.53948 ], [ -0.1783, 51.53979 ], [ -0.17909, 51.53975 ], [ -0.18018, 51.53956 ], [ -0.1816, 51.53915 ], [ -0.18387, 51.53838 ], [ -0.18447, 51.53807 ], [ -0.18775, 51.53503 ], [ -0.18798, 51.53488 ], [ -0.18877, 51.53453 ], [ -0.18943, 51.53506 ], [ -0.19083, 51.53576 ], [ -0.19148, 51.53629 ], [ -0.19304, 51.53399 ], [ -0.19238, 51.53325 ], [ -0.19241, 51.53289 ], [ -0.19256, 51.53263 ], [ -0.19314, 51.53182 ], [ -0.19657, 51.52766 ], [ -0.19684, 51.52773 ], [ -0.19685, 51.52786 ], [ -0.19702, 51.52794 ], [ -0.19725, 51.52793 ], [ -0.1975, 51.52785 ], [ -0.1978, 51.5279 ], [ -0.19807, 51.52862 ], [ -0.19795, 51.52885 ], [ -0.19798, 51.53008 ], [ -0.1983, 51.53044 ], [ -0.19886, 51.53086 ], [ -0.19956, 51.53124 ], [ -0.20111, 51.53191 ], [ -0.2014, 51.53215 ], [ -0.20169, 51.53256 ], [ -0.20204, 51.5326 ], [ -0.20299, 51.5329 ], [ -0.2036, 51.53289 ], [ -0.20531, 51.53296 ], [ -0.20795, 51.53278 ], [ -0.20934, 51.53247 ], [ -0.21105, 51.53196 ], [ -0.21174, 51.53184 ], [ -0.21327, 51.53177 ], [ -0.21469, 51.53152 ], [ -0.21527, 51.53136 ], [ -0.21536, 51.5312 ], [ -0.2151, 51.53026 ], [ -0.21531, 51.52991 ], [ -0.21556, 51.5298 ], [ -0.21588, 51.52973 ], [ -0.21608, 51.52907 ], [ -0.21603, 51.52793 ] ] ] } }
]
}
