{
"type": "FeatureCollection",
"name": "wards",
"xy_coordinate_resolution": 1e-05,
"features": [
{ "type": "Feature", "properties": { "ward": "Abbey Road", "slug": "abbey-road" }, "geometry": { "type": "Polygon", "coordinates": [ [ [ -0.1783, 51.53979 ], [ -0.17909, 51.53975 ], [ -0.18042, 51.5395 ], [ -0.18387, 51.53838 ], [ -0.18464, 51.53795 ], [ -0.18775, 51.53503 ], [ -0.18798, 51.53488 ], [ -0.18877, 51.53452 ], [ -0.18296, 51.52956 ], [ -0.18042, 51.52765 ], [ -0.17765, 51.52522 ], [ -0.17685, 51.52462 ], [ -0.17374, 51.5261 ], [ -0.17332, 51.52623 ], [ -0.17196, 51.52643 ], [ -0.17332, 51.52706 ], [ -0.17412, 51.52766 ], [ -0.16898, 51.53012 ], [ -0.16926, 51.53025 ], [ -0.17322, 51.53349 ], [ -0.17564, 51.53551 ], [ -0.17611, 51.53601 ], [ -0.17625, 51.53632 ], [ -0.17351, 51.53763 ], [ -0.17404, 51.53804 ], [ -0.17414, 51.5382 ], [ -0.17392, 51.53948 ], [ -0.1783, 51.53979 ] ] ] } },
{ "type": "Feature", "properties": { "ward": "Bayswater", "slug": "bayswater" }, "geometry": { "type": "Polygon", "coordinates": [ [ [ -0.19517, 51.52055 ], [ -0.19526, 51.52044 ], [ -0.19493, 51.52004 ], [ -0.19494, 51.51954 ], [ -0.19498, 51.5194 ], [ -0.19512, 51.51927 ], [ -0.19548, 51.51927 ], [ -0.1979, 51.51874 ], [ -0.19702, 51.51726 ], [ -0.19994, 51.51685 ], [ -0.19921, 51.51455 ], [ -0.19507, 51.51503 ], [ -0.19406, 51.51176 ], [ -0.19366, 51.51169 ], [ -0.19298, 51.51181 ], [ -0.19214, 51.50987 ], [ -0.19094, 51.51002 ], [ -0.1891, 51.51012 ], [ -0.18929, 51.51091 ], [ -0.18981, 51.51244 ], [ -0.18858, 51.51262 ], [ -0.18888, 51.51325 ], [ -0.18906, 51.51341 ], [ -0.18967, 51.51523 ], [ -0.18827, 51.51541 ], [ -0.18837, 51.51581 ], [ -0.18716, 51.51618 ], [ -0.18211, 51.51754 ], [ -0.18497, 51.51953 ], [ -0.18963, 51.5196 ], [ -0.1912, 51.5197 ], [ -0.19317, 51.52001 ], [ -0.19517, 51.52055 ] ] ] } },
{ "type": "Feature", "properties": { "ward": "Church Street", "slug": "church-street" }, "geometry": { "type": "Polygon", "coordinates": [ [ [ -0.16736, 51.52829 ], [ -0.16783, 51.52778 ], [ -0.16841, 51.52732 ], [ -0.16883, 51.52707 ], [ -0.16932, 51.52686 ], [ -0.16992, 51.52668 ], [ -0.17068, 51.52653 ], [ -0.17166, 51.52647 ], [ -0.17347, 51.52619 ], [ -0.17425, 51.52589 ], [ -0.17685, 51.52462 ], [ -0.17585, 51.524 ], [ -0.17198, 51.52137 ], [ -0.17135, 51.52091 ], [ -0.17118, 51.52071 ], [ -0.17079, 51.5204 ], [ -0.17014, 51.51995 ], [ -0.169, 51.52006 ], [ -0.16645, 51.52063 ], [ -0.16527, 51.52077 ], [ -0.1643, 51.52094 ], [ -0.16513, 51.52223 ], [ -0.1654, 51.52256 ], [ -0.16664, 51.52344 ], [ -0.16738, 51.52404 ], [ -0.16631, 51.5246 ], [ -0.16559, 51.52486 ], [ -0.16394, 51.52519 ], [ -0.16434, 51.52573 ], [ -0.16495, 51.52634 ], [ -0.16736, 51.52829 ] ] ] } },
{ "type": "Feature", "properties": { "ward": "Harrow Road", "slug": "harrow-road" }, "geometry": { "type": "Polygon", "coordinates": [ [ [ -0.20307, 51.5329 ], [ -0.20274, 51.53199 ], [ -0.20195, 51.53042 ], [ -0.20143, 51.52855 ], [ -0.20346, 51.52896 ], [ -0.20406, 51.52547 ], [ -0.20491, 51.52599 ], [ -0.20549, 51.52622 ], [ -0.20604, 51.52632 ], [ -0.20726, 51.52644 ], [ -0.20732, 51.52624 ], [ -0.20651, 51.52607 ], [ -0.20618, 51.52594 ], [ -0.2059, 51.52574 ], [ -0.20519, 51.52493 ], [ -0.20437, 51.52384 ], [ -0.20388, 51.52346 ], [ -0.20302, 51.52313 ], [ -0.20155, 51.52273 ], [ -0.20181, 51.52353 ], [ -0.20165, 51.52425 ], [ -0.20085, 51.52395 ], [ -0.20047, 51.52386 ], [ -0.19528, 51.5231 ], [ -0.19464, 51.52295 ], [ -0.18983, 51.5247 ], [ -0.19349, 51.52649 ], [ -0.19498, 51.52598 ], [ -0.19747, 51.52524 ], [ -0.19722, 51.52773 ], [ -0.19737, 51.52776 ], [ -0.19736, 51.52789 ], [ -0.1975, 51.52785 ], [ -0.1978, 51.5279 ], [ -0.19807, 51.52862 ], [ -0.19795, 51.52885 ], [ -0.198, 51.52916 ], [ -0.19793, 51.52961 ], [ -0.19799, 51.53012 ], [ -0.1983, 51.53044 ], [ -0.19886, 51.53086 ], [ -0.19956, 51.53124 ], [ -0.20111, 51.53191 ], [ -0.2014, 51.53216 ], [ -0.20169, 51.53256 ], [ -0.20204, 51.5326 ], [ -0.20307, 51.5329 ] ] ] } },
{ "type": "Feature", "properties": { "ward": "Hyde Park", "slug": "hyde-park" }, "geometry": { "type": "Polygon", "coordinates": [ [ [ -0.16537, 51.52076 ], [ -0.16619, 51.52067 ], [ -0.16891, 51.52008 ], [ -0.17006, 51.51995 ], [ -0.18009, 51.52009 ], [ -0.18136, 51.51998 ], [ -0.18391, 51.5196 ], [ -0.18497, 51.51953 ], [ -0.18335, 51.5184 ], [ -0.18142, 51.5183 ], [ -0.18071, 51.51821 ], [ -0.18062, 51.51813 ], [ -0.1805, 51.51816 ], [ -0.18021, 51.51808 ], [ -0.18048, 51.51795 ], [ -0.17684, 51.51541 ], [ -0.17585, 51.51482 ], [ -0.17474, 51.51405 ], [ -0.17604, 51.51332 ], [ -0.17402, 51.51184 ], [ -0.1723, 51.51201 ], [ -0.17226, 51.51174 ], [ -0.17276, 51.51131 ], [ -0.17276, 51.51111 ], [ -0.17263, 51.511 ], [ -0.17112, 51.51034 ], [ -0.17077, 51.51004 ], [ -0.17067, 51.50985 ], [ -0.17041, 51.50738 ], [ -0.17077, 51.50694 ], [ -0.17105, 51.50674 ], [ -0.17126, 51.50668 ], [ -0.17116, 51.50659 ], [ -0.16941, 51.50607 ], [ -0.16896, 51.50602 ], [ -0.16581, 51.50598 ], [ -0.16422, 51.50603 ], [ -0.16324, 51.50594 ], [ -0.16157, 51.50563 ], [ -0.15871, 51.50502 ], [ -0.15255, 51.50391 ], [ -0.15243, 51.50405 ], [ -0.15215, 51.5042 ], [ -0.15222, 51.50434 ], [ -0.15196, 51.50519 ], [ -0.15201, 51.50583 ], [ -0.15233, 51.50635 ], [ -0.15214, 51.50654 ], [ -0.15475, 51.50891 ], [ -0.15625, 51.50996 ], [ -0.15672, 51.51037 ], [ -0.15836, 51.51327 ], [ -0.15857, 51.5134 ], [ -0.16031, 51.51321 ], [ -0.16035, 51.51334 ], [ -0.16055, 51.51353 ], [ -0.16289, 51.51501 ], [ -0.16746, 51.51812 ], [ -0.16604, 51.51922 ], [ -0.16575, 51.52004 ], [ -0.16537, 51.52076 ] ] ] } },
{ "type": "Feature", "properties": { "ward": "Knightsbridge & Belgravia", "slug": "knightsbridge-belgravia" }, "geometry": { "type": "Polygon", "coordinates": [ [ [ -0.17192, 51.50681 ], [ -0.17213, 51.5068 ], [ -0.1723, 51.50671 ], [ -0.173, 51.50583 ], [ -0.17334, 51.50502 ], [ -0.17451, 51.50345 ], [ -0.17469, 51.50292 ], [ -0.1747, 51.50216 ], [ -0.17568, 51.50214 ], [ -0.18038, 51.50178 ], [ -0.17957, 51.49778 ], [ -0.17357, 51.49822 ], [ -0.17356, 51.4983 ], [ -0.17248, 51.49839 ], [ -0.17247, 51.49847 ], [ -0.17181, 51.49853 ], [ -0.1718, 51.49861 ], [ -0.1715, 51.49869 ], [ -0.16841, 51.49902 ], [ -0.1682, 51.499 ], [ -0.16805, 51.49888 ], [ -0.16793, 51.49852 ], [ -0.16764, 51.4983 ], [ -0.1658, 51.49924 ], [ -0.16551, 51.4987 ], [ -0.1626, 51.50029 ], [ -0.16157, 51.50123 ], [ -0.16102, 51.50159 ], [ -0.16059, 51.50177 ], [ -0.15847, 51.50225 ], [ -0.15852, 51.50126 ], [ -0.15787, 51.49902 ], [ -0.1561, 51.49776 ], [ -0.15568, 51.49563 ], [ -0.15555, 51.49534 ], [ -0.15532, 51.49506 ], [ -0.15584, 51.49473 ], [ -0.15601, 51.49449 ], [ -0.15502, 51.49386 ], [ -0.15601, 51.49322 ], [ -0.15482, 51.49196 ], [ -0.15582, 51.49145 ], [ -0.15557, 51.49067 ], [ -0.1552, 51.49005 ], [ -0.15587, 51.48961 ], [ -0.15349, 51.48818 ], [ -0.1502, 51.48609 ], [ -0.15009, 51.4859 ], [ -0.14984, 51.48456 ], [ -0.14738, 51.48464 ], [ -0.14738, 51.48643 ], [ -0.14761, 51.48721 ], [ -0.14816, 51.48822 ], [ -0.14835, 51.48875 ], [ -0.14841, 51.48945 ], [ -0.14829, 51.49006 ], [ -0.14974, 51.4908 ], [ -0.14783, 51.49252 ], [ -0.14487, 51.4967 ], [ -0.14639, 51.49726 ], [ -0.14722, 51.49844 ], [ -0.1479, 51.49918 ], [ -0.14861, 51.49982 ], [ -0.14914, 51.50026 ], [ -0.1516, 51.50186 ], [ -0.14989, 51.50248 ], [ -0.1498, 51.50305 ], [ -0.14989, 51.50319 ], [ -0.15007, 51.50328 ], [ -0.1508, 51.50329 ], [ -0.15224, 51.50305 ], [ -0.15263, 51.50377 ], [ -0.15255, 51.50391 ], [ -0.15871, 51.50502 ], [ -0.16157, 51.50563 ], [ -0.16324, 51.50594 ], [ -0.16422, 51.50603 ], [ -0.16581, 51.50598 ], [ -0.16916, 51.50604 ], [ -0.16941, 51.50607 ], [ -0.17116, 51.50659 ], [ -0.17126, 51.50668 ], [ -0.17148, 51.50669 ], [ -0.17192, 51.50681 ] ] ] } },
{ "type": "Feature", "properties": { "ward": "Lancaster Gate", "slug": "lancaster-gate" }, "geometry": { "type": "Polygon", "coordinates": [ [ [ -0.18335, 51.5184 ], [ -0.18211, 51.51754 ], [ -0.18716, 51.51618 ], [ -0.18837, 51.51581 ], [ -0.18827, 51.51541 ], [ -0.18967, 51.51523 ], [ -0.18906, 51.51341 ], [ -0.18888, 51.51325 ], [ -0.18858, 51.51262 ], [ -0.18981, 51.51244 ], [ -0.18929, 51.51091 ], [ -0.1891, 51.51012 ], [ -0.18793, 51.51018 ], [ -0.18426, 51.50179 ], [ -0.18262, 51.5015 ], [ -0.18166, 51.50142 ], [ -0.18093, 51.50142 ], [ -0.18034, 51.50146 ], [ -0.18038, 51.50178 ], [ -0.17568, 51.50214 ], [ -0.1747, 51.50216 ], [ -0.17469, 51.50292 ], [ -0.17451, 51.50345 ], [ -0.17334, 51.50502 ], [ -0.1732, 51.50527 ], [ -0.17306, 51.50575 ], [ -0.17235, 51.50666 ], [ -0.1722, 51.50677 ], [ -0.17199, 51.50682 ], [ -0.17148, 51.50669 ], [ -0.17114, 51.5067 ], [ -0.17077, 51.50694 ], [ -0.17044, 51.50731 ], [ -0.17047, 51.5081 ], [ -0.17072, 51.50996 ], [ -0.17112, 51.51034 ], [ -0.17263, 51.511 ], [ -0.17276, 51.51111 ], [ -0.17276, 51.51131 ], [ -0.17226, 51.51174 ], [ -0.1723, 51.51201 ], [ -0.17402, 51.51184 ], [ -0.17604, 51.51332 ], [ -0.17474, 51.51405 ], [ -0.17585, 51.51482 ], [ -0.17684, 51.51541 ], [ -0.18048, 51.51795 ], [ -0.18021, 51.51808 ], [ -0.1805, 51.51816 ], [ -0.18062, 51.51813 ], [ -0.18071, 51.51821 ], [ -0.18142, 51.5183 ], [ -0.18335, 51.5184 ] ] ] } },
{ "type": "Feature", "properties": { "ward": "Little Venice", "slug": "little-venice" }, "geometry": { "type": "Polygon", "coordinates": [ [ [ -0.18138, 51.52839 ], [ -0.18229, 51.52795 ], [ -0.18267, 51.52825 ], [ -0.18304, 51.52806 ], [ -0.18316, 51.52816 ], [ -0.18363, 51.52793 ], [ -0.18314, 51.52754 ], [ -0.18356, 51.52735 ], [ -0.18396, 51.52736 ], [ -0.18452, 51.52724 ], [ -0.1846, 51.5273 ], [ -0.18736, 51.52595 ], [ -0.18739, 51.52597 ], [ -0.18897, 51.5254 ], [ -0.18932, 51.52557 ], [ -0.18976, 51.52522 ], [ -0.18987, 51.52528 ], [ -0.1903, 51.52494 ], [ -0.18692, 51.52329 ], [ -0.18782, 51.5225 ], [ -0.18357, 51.52115 ], [ -0.18331, 51.52112 ], [ -0.18221, 51.52117 ], [ -0.18149, 51.52108 ], [ -0.18115, 51.52093 ], [ -0.17993, 51.5201 ], [ -0.17014, 51.51995 ], [ -0.17079, 51.5204 ], [ -0.17118, 51.52071 ], [ -0.17135, 51.52091 ], [ -0.17198, 51.52137 ], [ -0.17717, 51.52485 ], [ -0.17997, 51.52728 ], [ -0.18138, 51.52839 ] ] ] } },
{ "type": "Feature", "properties": { "ward": "Maida Vale", "slug": "maida-vale" }, "geometry": { "type": "Polygon", "coordinates": [ [ [ -0.19148, 51.53629 ], [ -0.19304, 51.53399 ], [ -0.19237, 51.53321 ], [ -0.19241, 51.53289 ], [ -0.19289, 51.53213 ], [ -0.19641, 51.52791 ], [ -0.19657, 51.52765 ], [ -0.19685, 51.52773 ], [ -0.19685, 51.52786 ], [ -0.19693, 51.52793 ], [ -0.19713, 51.52795 ], [ -0.19736, 51.52789 ], [ -0.19737, 51.52776 ], [ -0.19722, 51.52773 ], [ -0.19747, 51.52524 ], [ -0.19498, 51.52598 ], [ -0.19349, 51.52649 ], [ -0.1903, 51.52494 ], [ -0.18987, 51.52528 ], [ -0.18976, 51.52522 ], [ -0.18932, 51.52557 ], [ -0.18897, 51.5254 ], [ -0.18739, 51.52597 ], [ -0.18736, 51.52595 ], [ -0.1846, 51.5273 ], [ -0.18452, 51.52724 ], [ -0.18396, 51.52736 ], [ -0.18356, 51.52735 ], [ -0.18314, 51.52754 ], [ -0.18363, 51.52793 ], [ -0.18316, 51.52816 ], [ -0.18304, 51.52806 ], [ -0.18267, 51.52825 ], [ -0.18229, 51.52795 ], [ -0.18138, 51.52839 ], [ -0.18296, 51.52956 ], [ -0.18932, 51.53499 ], [ -0.19083, 51.53576 ], [ -0.19148, 51.53629 ] ] ] } },
{ "type": "Feature", "properties": { "ward": "Marylebone", "slug": "marylebone" }, "geometry": { "type": "Polygon", "coordinates": [ [ [ -0.14794, 51.52349 ], [ -0.1496, 51.52325 ], [ -0.15238, 51.52306 ], [ -0.16537, 51.52076 ], [ -0.16575, 51.52004 ], [ -0.16604, 51.51922 ], [ -0.16746, 51.51812 ], [ -0.16166, 51.51421 ], [ -0.15829, 51.51475 ], [ -0.14288, 51.51738 ], [ -0.14314, 51.5178 ], [ -0.14393, 51.51818 ], [ -0.14424, 51.51847 ], [ -0.1462, 51.5229 ], [ -0.1468, 51.52288 ], [ -0.14714, 51.52294 ], [ -0.14758, 51.52314 ], [ -0.14794, 51.52349 ] ] ] } },
{ "type": "Feature", "properties": { "ward": "Pimlico North", "slug": "pimlico-north" }, "geometry": { "type": "Polygon", "coordinates": [ [ [ -0.14487, 51.4967 ], [ -0.14664, 51.49426 ], [ -0.14783, 51.49252 ], [ -0.14974, 51.4908 ], [ -0.14829, 51.49006 ], [ -0.14764, 51.49008 ], [ -0.14627, 51.49036 ], [ -0.14608, 51.48998 ], [ -0.14591, 51.48997 ], [ -0.14152, 51.48787 ], [ -0.14143, 51.48775 ], [ -0.1385, 51.48812 ], [ -0.13373, 51.48902 ], [ -0.13347, 51.48903 ], [ -0.13266, 51.48894 ], [ -0.13243, 51.48896 ], [ -0.13229, 51.48902 ], [ -0.13154, 51.48961 ], [ -0.13347, 51.49058 ], [ -0.14065, 51.49402 ], [ -0.14093, 51.49423 ], [ -0.14192, 51.49521 ], [ -0.14275, 51.49655 ], [ -0.14487, 51.4967 ] ] ] } },
{ "type": "Feature", "properties": { "ward": "Pimlico South", "slug": "pimlico-south" }, "geometry": { "type": "Polygon", "coordinates": [ [ [ -0.14627, 51.49036 ], [ -0.14764, 51.49008 ], [ -0.14829, 51.49006 ], [ -0.14838, 51.48966 ], [ -0.14839, 51.48897 ], [ -0.14826, 51.48843 ], [ -0.14761, 51.48721 ], [ -0.14742, 51.48667 ], [ -0.14736, 51.48622 ], [ -0.14738, 51.48464 ], [ -0.14492, 51.48456 ], [ -0.14428, 51.48443 ], [ -0.14345, 51.48438 ], [ -0.14036, 51.48386 ], [ -0.13894, 51.48382 ], [ -0.13779, 51.48385 ], [ -0.13714, 51.48392 ], [ -0.13288, 51.4847 ], [ -0.13037, 51.48561 ], [ -0.12978, 51.48577 ], [ -0.12931, 51.48599 ], [ -0.12717, 51.48764 ], [ -0.13004, 51.48887 ], [ -0.13154, 51.48961 ], [ -0.13243, 51.48896 ], [ -0.13266, 51.48894 ], [ -0.13347, 51.48903 ], [ -0.13373, 51.48902 ], [ -0.1385, 51.48812 ], [ -0.14143, 51.48775 ], [ -0.14152, 51.48787 ], [ -0.14591, 51.48997 ], [ -0.14608, 51.48998 ], [ -0.14627, 51.49036 ] ] ] } },
{ "type": "Feature", "properties": { "ward": "Queen's Park", "slug": "queens-park" }, "geometry": { "type": "Polygon", "coordinates": [ [ [ -0.20553, 51.53295 ], [ -0.20795, 51.53278 ], [ -0.20934, 51.53247 ], [ -0.21105, 51.53196 ], [ -0.21174, 51.53184 ], [ -0.21327, 51.53177 ], [ -0.21469, 51.53152 ], [ -0.21527, 51.53136 ], [ -0.21536, 51.5312 ], [ -0.2151, 51.5304 ], [ -0.21513, 51.53017 ], [ -0.21531, 51.52991 ], [ -0.21556, 51.5298 ], [ -0.21588, 51.52973 ], [ -0.21608, 51.52907 ], [ -0.21603, 51.52793 ], [ -0.21582, 51.52783 ], [ -0.21592, 51.5275 ], [ -0.21557, 51.52672 ], [ -0.21332, 51.5269 ], [ -0.21028, 51.52668 ], [ -0.20824, 51.52632 ], [ -0.20761, 51.52626 ], [ -0.20732, 51.52624 ], [ -0.20726, 51.52644 ], [ -0.20604, 51.52632 ], [ -0.20549, 51.52622 ], [ -0.20505, 51.52606 ], [ -0.20406, 51.52547 ], [ -0.20346, 51.52896 ], [ -0.20143, 51.52855 ], [ -0.20195, 51.53042 ], [ -0.20274, 51.53199 ], [ -0.20307, 51.5329 ], [ -0.20553, 51.53295 ] ] ] } },
{ "type": "Feature", "properties": { "ward": "Regent's Park", "slug": "regents-park" }, "geometry": { "type": "Polygon", "coordinates": [ [ [ -0.16954, 51.5386 ], [ -0.17089, 51.53779 ], [ -0.17198, 51.53838 ], [ -0.17625, 51.53632 ], [ -0.17597, 51.53583 ], [ -0.17538, 51.53529 ], [ -0.16926, 51.53025 ], [ -0.16898, 51.53012 ], [ -0.17412, 51.52766 ], [ -0.17332, 51.52706 ], [ -0.17196, 51.52643 ], [ -0.17137, 51.5265 ], [ -0.17104, 51.52648 ], [ -0.1698, 51.52671 ], [ -0.1689, 51.52704 ], [ -0.16841, 51.52732 ], [ -0.16792, 51.52769 ], [ -0.16736, 51.52829 ], [ -0.16495, 51.52634 ], [ -0.16434, 51.52573 ], [ -0.16394, 51.52519 ], [ -0.16559, 51.52486 ], [ -0.16631, 51.5246 ], [ -0.16738, 51.52404 ], [ -0.16664, 51.52344 ], [ -0.1654, 51.52256 ], [ -0.16513, 51.52223 ], [ -0.1643, 51.52094 ], [ -0.15238, 51.52306 ], [ -0.14899, 51.52331 ], [ -0.1452, 51.52399 ], [ -0.14582, 51.52527 ], [ -0.1472, 51.52504 ], [ -0.15273, 51.53752 ], [ -0.15418, 51.53742 ], [ -0.15499, 51.53731 ], [ -0.15944, 51.53636 ], [ -0.16049, 51.53728 ], [ -0.16339, 51.5364 ], [ -0.16496, 51.53578 ], [ -0.16804, 51.53789 ], [ -0.16904, 51.53841 ], [ -0.16954, 51.5386 ] ] ] } },
{ "type": "Feature", "properties": { "ward": "St James's", "slug": "st-jamess" }, "geometry": { "type": "Polygon", "coordinates": [ [ [ -0.11472, 51.51604 ], [ -0.11728, 51.51538 ], [ -0.11762, 51.51523 ], [ -0.11862, 51.51496 ], [ -0.1187, 51.51472 ], [ -0.11949, 51.51451 ], [ -0.12035, 51.5146 ], [ -0.12184, 51.51487 ], [ -0.1221, 51.51463 ], [ -0.12289, 51.51514 ], [ -0.12338, 51.51479 ], [ -0.12358, 51.51472 ], [ -0.12449, 51.51415 ], [ -0.12667, 51.51314 ], [ -0.12704, 51.51288 ], [ -0.12718, 51.51271 ], [ -0.12735, 51.51267 ], [ -0.1276, 51.51265 ], [ -0.12836, 51.51312 ], [ -0.12896, 51.51342 ], [ -0.12984, 51.51284 ], [ -0.13243, 51.51181 ], [ -0.13327, 51.51137 ], [ -0.13394, 51.51077 ], [ -0.13448, 51.51013 ], [ -0.13482, 51.50995 ], [ -0.13487, 51.50986 ], [ -0.13477, 51.50973 ], [ -0.13951, 51.50822 ], [ -0.14123, 51.50754 ], [ -0.14398, 51.50622 ], [ -0.14572, 51.50528 ], [ -0.14707, 51.50462 ], [ -0.14811, 51.50402 ], [ -0.14991, 51.50321 ], [ -0.1498, 51.50305 ], [ -0.14989, 51.50248 ], [ -0.1516, 51.50186 ], [ -0.14914, 51.50026 ], [ -0.14861, 51.49982 ], [ -0.1479, 51.49918 ], [ -0.14722, 51.49844 ], [ -0.14639, 51.49726 ], [ -0.1449, 51.4967 ], [ -0.14234, 51.49652 ], [ -0.13563, 51.4975 ], [ -0.1357, 51.49648 ], [ -0.13492, 51.49626 ], [ -0.13477, 51.49626 ], [ -0.13374, 51.49651 ], [ -0.133, 51.49536 ], [ -0.13274, 51.49507 ], [ -0.1325, 51.49492 ], [ -0.13137, 51.49488 ], [ -0.12691, 51.49484 ], [ -0.12469, 51.49472 ], [ -0.12283, 51.49454 ], [ -0.12243, 51.49621 ], [ -0.12226, 51.49824 ], [ -0.12122, 51.50436 ], [ -0.12105, 51.50502 ], [ -0.12067, 51.50587 ], [ -0.11966, 51.50704 ], [ -0.11924, 51.50742 ], [ -0.11834, 51.5081 ], [ -0.1178, 51.5084 ], [ -0.11632, 51.50895 ], [ -0.1153, 51.50924 ], [ -0.11458, 51.50939 ], [ -0.11272, 51.50966 ], [ -0.11146, 51.50977 ], [ -0.11159, 51.51091 ], [ -0.11153, 51.51164 ], [ -0.11171, 51.51195 ], [ -0.11177, 51.512 ], [ -0.11189, 51.51197 ], [ -0.11216, 51.51227 ], [ -0.11219, 51.51231 ], [ -0.11206, 51.51233 ], [ -0.11241, 51.51277 ], [ -0.11221, 51.51289 ], [ -0.11234, 51.51304 ], [ -0.11174, 51.5132 ], [ -0.11198, 51.51368 ], [ -0.1111, 51.51383 ], [ -0.11158, 51.51528 ], [ -0.11161, 51.51534 ], [ -0.11169, 51.51533 ], [ -0.11171, 51.5153 ], [ -0.11233, 51.51522 ], [ -0.11231, 51.51515 ], [ -0.11386, 51.51482 ], [ -0.11472, 51.51604 ] ] ] } },
{ "type": "Feature", "properties": { "ward": "Vincent Square", "slug": "vincent-square" }, "geometry": { "type": "Polygon", "coordinates": [ [ [ -0.13563, 51.4975 ], [ -0.14195, 51.49657 ], [ -0.14234, 51.49652 ], [ -0.14275, 51.49655 ], [ -0.14188, 51.49517 ], [ -0.14093, 51.49423 ], [ -0.14057, 51.49397 ], [ -0.13347, 51.49058 ], [ -0.13012, 51.48891 ], [ -0.12717, 51.48764 ], [ -0.12676, 51.488 ], [ -0.12503, 51.4899 ], [ -0.12456, 51.49044 ], [ -0.12403, 51.49121 ], [ -0.12395, 51.4914 ], [ -0.12394, 51.49193 ], [ -0.12373, 51.49239 ], [ -0.12346, 51.4927 ], [ -0.12325, 51.49311 ], [ -0.12301, 51.49369 ], [ -0.12283, 51.49454 ], [ -0.12469, 51.49472 ], [ -0.12691, 51.49484 ], [ -0.13137, 51.49488 ], [ -0.1325, 51.49492 ], [ -0.13274, 51.49507 ], [ -0.133, 51.49536 ], [ -0.13374, 51.49651 ], [ -0.13477, 51.49626 ], [ -0.13492, 51.49626 ], [ -0.1357, 51.49648 ], [ -0.13563, 51.4975 ] ] ] } },
{ "type": "Feature", "properties": { "ward": "West End", "slug": "west-end" }, "geometry": { "type": "Polygon", "coordinates": [ [ [ -0.1435, 51.52462 ], [ -0.14399, 51.52469 ], [ -0.14418, 51.52464 ], [ -0.14415, 51.524 ], [ -0.14485, 51.52406 ], [ -0.14794, 51.52349 ], [ -0.1477, 51.52322 ], [ -0.14729, 51.52299 ], [ -0.1468, 51.52288 ], [ -0.1462, 51.5229 ], [ -0.14424, 51.51847 ], [ -0.14393, 51.51818 ], [ -0.14314, 51.5178 ], [ -0.14288, 51.51738 ], [ -0.15829, 51.51475 ], [ -0.16166, 51.51421 ], [ -0.16055, 51.51353 ], [ -0.16035, 51.51334 ], [ -0.16031, 51.51321 ], [ -0.15857, 51.5134 ], [ -0.15842, 51.51332 ], [ -0.15797, 51.51266 ], [ -0.15672, 51.51037 ], [ -0.15625, 51.50996 ], [ -0.15475, 51.50891 ], [ -0.15214, 51.50654 ], [ -0.15233, 51.50635 ], [ -0.15201, 51.50583 ], [ -0.15196, 51.50519 ], [ -0.15222, 51.50434 ], [ -0.15215, 51.5042 ], [ -0.15243, 51.50405 ], [ -0.15263, 51.50377 ], [ -0.15224, 51.50305 ], [ -0.1508, 51.50329 ], [ -0.15023, 51.5033 ], [ -0.14991, 51.50321 ], [ -0.14811, 51.50402 ], [ -0.14707, 51.50462 ], [ -0.14572, 51.50528 ], [ -0.14398, 51.50622 ], [ -0.14123, 51.50754 ], [ -0.13951, 51.50822 ], [ -0.13477, 51.50973 ], [ -0.13487, 51.50986 ], [ -0.13482, 51.50995 ], [ -0.13448, 51.51013 ], [ -0.13394, 51.51077 ], [ -0.13327, 51.51137 ], [ -0.13243, 51.51181 ], [ -0.12984, 51.51284 ], [ -0.12896, 51.51342 ], [ -0.12936, 51.51348 ], [ -0.12969, 51.51413 ], [ -0.13044, 51.51594 ], [ -0.13047, 51.51618 ], [ -0.13037, 51.5165 ], [ -0.13083, 51.5171 ], [ -0.13247, 51.51672 ], [ -0.13257, 51.51716 ], [ -0.13362, 51.51773 ], [ -0.13394, 51.51755 ], [ -0.13407, 51.51756 ], [ -0.13447, 51.51795 ], [ -0.13434, 51.51802 ], [ -0.13526, 51.51893 ], [ -0.13585, 51.51869 ], [ -0.13632, 51.51915 ], [ -0.13703, 51.51888 ], [ -0.13804, 51.51982 ], [ -0.13821, 51.52004 ], [ -0.1429, 51.52388 ], [ -0.14352, 51.52391 ], [ -0.14341, 51.52454 ], [ -0.1435, 51.52462 ] ] ] } },
{ "type": "Feature", "properties": { "ward": "Westbourne", "slug": "westbourne" }, "geometry": { "type": "Polygon", "coordinates": [ [ [ -0.18983, 51.5247 ], [ -0.19464, 51.52295 ], [ -0.19528, 51.5231 ], [ -0.20047, 51.52386 ], [ -0.20085, 51.52395 ], [ -0.20165, 51.52425 ], [ -0.20181, 51.52353 ], [ -0.20155, 51.52273 ], [ -0.20164, 51.52274 ], [ -0.20153, 51.52198 ], [ -0.20064, 51.52079 ], [ -0.20063, 51.52071 ], [ -0.20077, 51.52071 ], [ -0.20077, 51.52082 ], [ -0.20267, 51.5209 ], [ -0.20311, 51.52082 ], [ -0.20377, 51.52062 ], [ -0.20342, 51.52026 ], [ -0.20321, 51.51976 ], [ -0.20149, 51.5178 ], [ -0.20075, 51.51798 ], [ -0.19994, 51.51685 ], [ -0.19702, 51.51726 ], [ -0.1979, 51.51874 ], [ -0.19548, 51.51927 ], [ -0.19512, 51.51927 ], [ -0.19498, 51.5194 ], [ -0.19494, 51.51954 ], [ -0.19493, 51.52004 ], [ -0.19526, 51.52044 ], [ -0.19517, 51.52055 ], [ -0.19366, 51.52012 ], [ -0.19245, 51.51987 ], [ -0.19101, 51.51969 ], [ -0.18963, 51.5196 ], [ -0.18469, 51.51954 ], [ -0.18366, 51.51963 ], [ -0.18102, 51.52003 ], [ -0.17993, 51.5201 ], [ -0.18115, 51.52093 ], [ -0.18149, 51.52108 ], [ -0.18221, 51.52117 ], [ -0.18331, 51.52112 ], [ -0.18357, 51.52115 ], [ -0.18782, 51.5225 ], [ -0.18692, 51.52329 ], [ -0.18983, 51.5247 ] ] ] } }
]
}
